CYGNUS NG-24            
1 68689U 26079A   26102.84991451  .00220277  35068-4  22099-3 0  9994
2 68689  51.6616 263.4880 0006629 293.1346  66.8970 16.10537511   226
